{
  "norad_id": 55483,
  "name": "STARLINK-5692",
  "history": [
    {
      "epoch": "2026-03-28T17:41:59.512704Z",
      "apogee_km": 486.64889595876593,
      "perigee_km": 484.4726919362165,
      "latitude_deg": -3.012818582829615e-05,
      "longitude_deg": 140.05835479886096,
      "height_km": 485.4884717793372,
      "semi_major_axis_km": 6863.697793947491,
      "eccentricity": 0.00015853,
      "inclination_deg": 43.0027,
      "raan_deg": 231.71,
      "arg_perigee_deg": 262.0512,
      "mean_anomaly_deg": 98.0159,
      "mean_motion_rev_day": 15.26741574
    }
  ]
}